start=new Date('2022-09-08T00:00:00.000Z').valueOf();
sats=[{"OBJECT_TYPE":"PAYLOAD","BSTAR":"-0.00195420000000","INCLINATION":"53.2142","OBJECT_ID":"2022-062Y","CENTER_NAME":"EARTH","EPOCH":"2022-09-07T22:00:00.999936","MEAN_ELEMENT_THEORY":"SGP4","MEAN_ANOMALY":"154.9914","REF_FRAME":"TEME","FILE":"3563022","TLE_LINE1":"1 52852U 22062Y   22250.91667824 -.00031276  00000-0 -19542-2 0  9992","ARG_OF_PERICENTER":"45.9422","EPHEMERIS_TYPE":"0","RA_OF_ASC_NODE":"4.7660","SEMIMAJOR_AXIS":"6917.805","OBJECT_NAME":"STARLINK-4184","REV_AT_EPOCH":"130","TIME_SYSTEM":"UTC","MEAN_MOTION":"15.08864609","ECCENTRICITY":"0.00018820","LAUNCH_DATE":"2022-06-17","TLE_LINE2":"2 52852  53.2142   4.7660 0001882  45.9422 154.9914 15.08864609  1303","RCS_SIZE":"LARGE","DECAY_DATE":null,"CLASSIFICATION_TYPE":"U","GP_ID":"212012579","MEAN_MOTION_DOT":"-0.00031276","MEAN_MOTION_DDOT":"0.0000000000000","PERIAPSIS":"538.368","NORAD_CAT_ID":"52852","APOAPSIS":"540.972","COUNTRY_CODE":"US","ELEMENT_SET_NO":"999","SITE":"AFETR","PERIOD":"95.436"},{"PERIOD":"95.438","SITE":"AFETR","APOAPSIS":"541.074","COUNTRY_CODE":"US","ELEMENT_SET_NO":"999","PERIAPSIS":"538.453","NORAD_CAT_ID":"52853","MEAN_MOTION_DDOT":"0.0000000000000","CLASSIFICATION_TYPE":"U","MEAN_MOTION_DOT":"-0.00018714","GP_ID":"212012886","LAUNCH_DATE":"2022-06-17","TLE_LINE2":"2 52853  53.2128   4.7569 0001895  49.6021 231.3386 15.08834084  1303","DECAY_DATE":null,"RCS_SIZE":"LARGE","REV_AT_EPOCH":"130","TIME_SYSTEM":"UTC","ECCENTRICITY":"0.00018950","MEAN_MOTION":"15.08834084","OBJECT_NAME":"STARLINK-4189","RA_OF_ASC_NODE":"4.7569","SEMIMAJOR_AXIS":"6917.898","EPHEMERIS_TYPE":"0","ARG_OF_PERICENTER":"49.6021","FILE":"3563022","TLE_LINE1":"1 52853U 22062Z   22250.91667824 -.00018714  00000-0 -11609-2 0  9991","MEAN_ANOMALY":"231.3386","REF_FRAME":"TEME","EPOCH":"2022-09-07T22:00:00.999936","CENTER_NAME":"EARTH","MEAN_ELEMENT_THEORY":"SGP4","OBJECT_ID":"2022-062Z","INCLINATION":"53.2128","BSTAR":"-0.00116090000000","OBJECT_TYPE":"PAYLOAD"},{"OBJECT_TYPE":"PAYLOAD","OBJECT_ID":"2022-062AA","INCLINATION":"53.2122","BSTAR":"-0.00317500000000","REF_FRAME":"TEME","MEAN_ANOMALY":"223.2640","MEAN_ELEMENT_THEORY":"SGP4","EPOCH":"2022-09-07T22:00:00.999936","CENTER_NAME":"EARTH","TLE_LINE1":"1 52854U 22062AA  22250.91667824 -.00050519  00000-0 -31750-2 0  9990","FILE":"3563022","EPHEMERIS_TYPE":"0","ARG_OF_PERICENTER":"37.6495","MEAN_MOTION":"15.08878781","ECCENTRICITY":"0.00020020","TIME_SYSTEM":"UTC","REV_AT_EPOCH":"130","OBJECT_NAME":"STARLINK-4204","SEMIMAJOR_AXIS":"6917.762","RA_OF_ASC_NODE":"4.7562","GP_ID":"212012014","MEAN_MOTION_DOT":"-0.00050519","CLASSIFICATION_TYPE":"U","DECAY_DATE":null,"TLE_LINE2":"2 52854  53.2122   4.7562 0002002  37.6495 223.2640 15.08878781  1309","RCS_SIZE":"LARGE","LAUNCH_DATE":"2022-06-17","PERIOD":"95.435","SITE":"AFETR","ELEMENT_SET_NO":"999","COUNTRY_CODE":"US","APOAPSIS":"541.012","PERIAPSIS":"538.242","NORAD_CAT_ID":"52854","MEAN_MOTION_DDOT":"0.0000000000000"},{"BSTAR":"-0.00402440000000","OBJECT_ID":"2022-062AB","INCLINATION":"53.2123","OBJECT_TYPE":"PAYLOAD","FILE":"3563022","TLE_LINE1":"1 52855U 22062AB  22250.91667824 -.00063792  00000-0 -40244-2 0  9996","EPOCH":"2022-09-07T22:00:00.999936","CENTER_NAME":"EARTH","MEAN_ELEMENT_THEORY":"SGP4","MEAN_ANOMALY":"266.4430","REF_FRAME":"TEME","OBJECT_NAME":"STARLINK-4209","RA_OF_ASC_NODE":"4.7575","SEMIMAJOR_AXIS":"6917.842","TIME_SYSTEM":"UTC","REV_AT_EPOCH":"130","ECCENTRICITY":"0.00018290","MEAN_MOTION":"15.08852480","ARG_OF_PERICENTER":"54.4735","EPHEMERIS_TYPE":"0","PERIAPSIS":"538.442","NORAD_CAT_ID":"52855","MEAN_MOTION_DDOT":"0.0000000000000","SITE":"AFETR","PERIOD":"95.437","COUNTRY_CODE":"US","ELEMENT_SET_NO":"999","APOAPSIS":"540.973","LAUNCH_DATE":"2022-06-17","DECAY_DATE":null,"TLE_LINE2":"2 52855  53.2123   4.7575 0001829  54.4735 266.4430 15.08852480  1309","RCS_SIZE":"LARGE","CLASSIFICATION_TYPE":"U","MEAN_MOTION_DOT":"-0.00063792","GP_ID":"212012732"},{"ARG_OF_PERICENTER":"48.5125","EPHEMERIS_TYPE":"0","SEMIMAJOR_AXIS":"6917.891","RA_OF_ASC_NODE":"4.7566","OBJECT_NAME":"STARLINK-4201","REV_AT_EPOCH":"130","TIME_SYSTEM":"UTC","ECCENTRICITY":"0.00016630","MEAN_MOTION":"15.08836635","LAUNCH_DATE":"2022-06-17","DECAY_DATE":null,"TLE_LINE2":"2 52856  53.2118   4.7566 0001663  48.5125 252.4221 15.08836635  1304","RCS_SIZE":"LARGE","CLASSIFICATION_TYPE":"U","MEAN_MOTION_DOT":"-0.00021963","GP_ID":"212012167","MEAN_MOTION_DDOT":"0.0000000000000","NORAD_CAT_ID":"52856","PERIAPSIS":"538.605","COUNTRY_CODE":"US","ELEMENT_SET_NO":"999","APOAPSIS":"540.906","PERIOD":"95.438","SITE":"AFETR","OBJECT_TYPE":"PAYLOAD","BSTAR":"-0.00136620000000","INCLINATION":"53.2118","OBJECT_ID":"2022-062AC","EPOCH":"2022-09-07T22:00:00.999936","CENTER_NAME":"EARTH","MEAN_ELEMENT_THEORY":"SGP4","MEAN_ANOMALY":"252.4221","REF_FRAME":"TEME","FILE":"3563022","TLE_LINE1":"1 52856U 22062AC  22250.91667824 -.00021963  00000-0 -13662-2 0  9995"},{"LAUNCH_DATE":"2022-06-17","RCS_SIZE":"LARGE","TLE_LINE2":"2 52857  53.2122   4.7563 0001490  64.0126 297.0286 15.08894611  1314","DECAY_DATE":null,"CLASSIFICATION_TYPE":"U","MEAN_MOTION_DOT":"-0.00127889","GP_ID":"212013081","MEAN_MOTION_DDOT":"0.0000000000000","PERIAPSIS":"538.548","NORAD_CAT_ID":"52857","COUNTRY_CODE":"US","ELEMENT_SET_NO":"999","APOAPSIS":"540.609","PERIOD":"95.434","SITE":"AFETR","ARG_OF_PERICENTER":"64.0126","EPHEMERIS_TYPE":"0","RA_OF_ASC_NODE":"4.7563","SEMIMAJOR_AXIS":"6917.713","OBJECT_NAME":"STARLINK-4199","REV_AT_EPOCH":"131","TIME_SYSTEM":"UTC","ECCENTRICITY":"0.00014900","MEAN_MOTION":"15.08894611","CENTER_NAME":"EARTH","EPOCH":"2022-09-07T22:00:00.999936","MEAN_ELEMENT_THEORY":"SGP4","MEAN_ANOMALY":"297.0286","REF_FRAME":"TEME","FILE":"3563022","TLE_LINE1":"1 52857U 22062AD  22250.91667824 -.00127889  00000-0 -81498-2 0  9992","OBJECT_TYPE":"PAYLOAD","BSTAR":"-0.00814980000000","INCLINATION":"53.2122","OBJECT_ID":"2022-062AD"},{"ARG_OF_PERICENTER":"52.0100","EPHEMERIS_TYPE":"0","OBJECT_NAME":"STARLINK-4198","RA_OF_ASC_NODE":"4.7576","SEMIMAJOR_AXIS":"6917.861","TIME_SYSTEM":"UTC","REV_AT_EPOCH":"130","ECCENTRICITY":"0.00015530","MEAN_MOTION":"15.08846340","LAUNCH_DATE":"2022-06-17","TLE_LINE2":"2 52858  53.2117   4.7576 0001553  52.0100 263.8693 15.08846340  1300","DECAY_DATE":null,"RCS_SIZE":"LARGE","CLASSIFICATION_TYPE":"U","GP_ID":"212012427","MEAN_MOTION_DOT":"-0.00064350","NORAD_CAT_ID":"52858","PERIAPSIS":"538.652","MEAN_MOTION_DDOT":"0.0000000000000","PERIOD":"95.437","SITE":"AFETR","ELEMENT_SET_NO":"999","COUNTRY_CODE":"US","APOAPSIS":"540.800","OBJECT_TYPE":"PAYLOAD","BSTAR":"-0.00406080000000","OBJECT_ID":"2022-062AE","INCLINATION":"53.2117","EPOCH":"2022-09-07T22:00:00.999936","CENTER_NAME":"EARTH","MEAN_ELEMENT_THEORY":"SGP4","MEAN_ANOMALY":"263.8693","REF_FRAME":"TEME","FILE":"3563022","TLE_LINE1":"1 52858U 22062AE  22250.91667824 -.00064350  00000-0 -40608-2 0  9994"},{"MEAN_MOTION_DDOT":"0.0000000000000","PERIAPSIS":"538.520","NORAD_CAT_ID":"52859","ELEMENT_SET_NO":"999","COUNTRY_CODE":"US","APOAPSIS":"540.644","SITE":"AFETR","PERIOD":"95.434","LAUNCH_DATE":"2022-06-17","RCS_SIZE":"LARGE","TLE_LINE2":"2 52859  53.2150   4.7440 0001535  63.1620 317.8965 15.08893533  1306","DECAY_DATE":null,"CLASSIFICATION_TYPE":"U","GP_ID":"212012320","MEAN_MOTION_DOT":"-0.00108770","RA_OF_ASC_NODE":"4.7440","SEMIMAJOR_AXIS":"6917.717","OBJECT_NAME":"STARLINK-4196","TIME_SYSTEM":"UTC","REV_AT_EPOCH":"130","ECCENTRICITY":"0.00015350","MEAN_MOTION":"15.08893533","ARG_OF_PERICENTER":"63.1620","EPHEMERIS_TYPE":"0","FILE":"3563022","TLE_LINE1":"1 52859U 22062AF  22250.91667824 -.00108770  00000-0 -69104-2 0  9992","EPOCH":"2022-09-07T22:00:00.999936","CENTER_NAME":"EARTH","MEAN_ELEMENT_THEORY":"SGP4","MEAN_ANOMALY":"317.8965","REF_FRAME":"TEME","BSTAR":"-0.00691040000000","INCLINATION":"53.2150","OBJECT_ID":"2022-062AF","OBJECT_TYPE":"PAYLOAD"},{"BSTAR":"-0.00471020000000","INCLINATION":"53.2122","OBJECT_ID":"2022-062AG","OBJECT_TYPE":"PAYLOAD","FILE":"3563022","TLE_LINE1":"1 52860U 22062AG  22250.91667824 -.00074537  00000-0 -47102-2 0  9991","CENTER_NAME":"EARTH","EPOCH":"2022-09-07T22:00:00.999936","MEAN_ELEMENT_THEORY":"SGP4","MEAN_ANOMALY":"289.8648","REF_FRAME":"TEME","SEMIMAJOR_AXIS":"6917.791","RA_OF_ASC_NODE":"4.7568","OBJECT_NAME":"STARLINK-4191","REV_AT_EPOCH":"130","TIME_SYSTEM":"UTC","MEAN_MOTION":"15.08869275","ECCENTRICITY":"0.00017610","ARG_OF_PERICENTER":"51.0501","EPHEMERIS_TYPE":"0","MEAN_MOTION_DDOT":"0.0000000000000","NORAD_CAT_ID":"52860","PERIAPSIS":"538.438","APOAPSIS":"540.874","COUNTRY_CODE":"US","ELEMENT_SET_NO":"999","PERIOD":"95.436","SITE":"AFETR","LAUNCH_DATE":"2022-06-17","TLE_LINE2":"2 52860  53.2122   4.7568 0001761  51.0501 289.8648 15.08869275  1305","DECAY_DATE":null,"RCS_SIZE":"LARGE","CLASSIFICATION_TYPE":"U","GP_ID":"212012580","MEAN_MOTION_DOT":"-0.00074537"},{"LAUNCH_DATE":"2022-06-17","TLE_LINE2":"2 52861  53.2172   4.7494 0001434  66.2125  54.7882 15.08836822  1307","RCS_SIZE":"LARGE","DECAY_DATE":null,"CLASSIFICATION_TYPE":"U","GP_ID":"212012887","MEAN_MOTION_DOT":"-0.00000064","MEAN_MOTION_DDOT":"0.0000000000000","NORAD_CAT_ID":"52861","PERIAPSIS":"538.763","APOAPSIS":"540.747","COUNTRY_CODE":"US","ELEMENT_SET_NO":"999","SITE":"AFETR","PERIOD":"95.438","ARG_OF_PERICENTER":"66.2125","EPHEMERIS_TYPE":"0","RA_OF_ASC_NODE":"4.7494","SEMIMAJOR_AXIS":"6917.890","OBJECT_NAME":"STARLINK-4112","TIME_SYSTEM":"UTC","REV_AT_EPOCH":"130","MEAN_MOTION":"15.08836822","ECCENTRICITY":"0.00014340","EPOCH":"2022-09-07T22:00:00.999936","CENTER_NAME":"EARTH","MEAN_ELEMENT_THEORY":"SGP4","MEAN_ANOMALY":"54.7882","REF_FRAME":"TEME","FILE":"3563022","TLE_LINE1":"1 52861U 22062AH  22250.91667824 -.00000064  00000-0  14087-4 0  9993","OBJECT_TYPE":"PAYLOAD","BSTAR":"0.00001408700000","INCLINATION":"53.2172","OBJECT_ID":"2022-062AH"}];
